{
    "links": {
        "self": "http://www.neowsapp.com/rest/v1/neo/54051413?api_key=iIulBulltgU6a56xZRHN4H3l9WmuAYTsLGpBGhQ2"
    },
    "id": "54051413",
    "neo_reference_id": "54051413",
    "name": "(2020 QB6)",
    "designation": "2020 QB6",
    "nasa_jpl_url": "http://ssd.jpl.nasa.gov/sbdb.cgi?sstr=54051413",
    "absolute_magnitude_h": 25.07,
    "estimated_diameter": {
        "kilometers": {
            "estimated_diameter_min": 0.0257368254,
            "estimated_diameter_max": 0.0575492912
        },
        "meters": {
            "estimated_diameter_min": 25.7368254194,
            "estimated_diameter_max": 57.5492911629
        },
        "miles": {
            "estimated_diameter_min": 0.0159921169,
            "estimated_diameter_max": 0.0357594606
        },
        "feet": {
            "estimated_diameter_min": 84.4384063091,
            "estimated_diameter_max": 188.8100164188
        }
    },
    "is_potentially_hazardous_asteroid": false,
    "close_approach_data": [
        {
            "close_approach_date": "2020-08-17",
            "close_approach_date_full": "2020-Aug-17 17:11",
            "epoch_date_close_approach": 1597684260000,
            "relative_velocity": {
                "kilometers_per_second": "6.4041160515",
                "kilometers_per_hour": "23054.8177855496",
                "miles_per_hour": "14325.3671956933"
            },
            "miss_distance": {
                "astronomical": "0.1046349517",
                "lunar": "40.7029962113",
                "kilometers": "15653165.901872879",
                "miles": "9726426.2710445702"
            },
            "orbiting_body": "Earth"
        }
    ],
    "orbital_data": {
        "orbit_id": "2",
        "orbit_determination_date": "2020-09-15 06:56:13",
        "first_observation_date": "2020-08-23",
        "last_observation_date": "2020-09-14",
        "data_arc_in_days": 22,
        "observations_used": 12,
        "orbit_uncertainty": "8",
        "minimum_orbit_intersection": ".0918503",
        "jupiter_tisserand_invariant": "3.498",
        "epoch_osculation": "2459094.5",
        "eccentricity": ".4955468592277248",
        "semi_major_axis": "2.190953581773179",
        "inclination": "5.189282665659736",
        "ascending_node_longitude": "140.1980573011382",
        "orbital_period": "1184.535802325963",
        "perihelion_distance": "1.105233415611746",
        "perihelion_argument": "178.9258331962859",
        "aphelion_distance": "3.276673747934612",
        "perihelion_time": "2459076.020225029570",
        "mean_anomaly": "5.616308917207463",
        "mean_motion": ".3039165209638253",
        "equinox": "J2000",
        "orbit_class": {
            "orbit_class_type": "AMO",
            "orbit_class_description": "Near-Earth asteroid orbits similar to that of 1221 Amor",
            "orbit_class_range": "1.017 AU < q (perihelion) < 1.3 AU"
        }
    },
    "is_sentry_object": false
}